{"type": "FeatureCollection", "features": [{"type": "Feature", "properties": {"name": "Bengaluru"}, "geometry": {"type": "Polygon", "coordinates": [[[77.4600793, 12.9066307], [77.4602242, 12.898212], [77.4609653, 12.8984193], [77.4684886, 12.8883158], [77.4701154, 12.8939919], [77.4734404, 12.8984304], [77.4772684, 12.8964143], [77.4757268, 12.8952409], [77.4755216, 12.8943435], [77.4767369, 12.8944707], [77.4790702, 12.8921719], [77.4793075, 12.88979], [77.4810528, 12.8901451], [77.4818419, 12.8895559], [77.4829667, 12.8862915], [77.4824945, 12.8857516], [77.4787671, 12.8861201], [77.4789021, 12.8844496], [77.4751576, 12.88095], [77.4748241, 12.8800484], [77.4756686, 12.8783788], [77.4794114, 12.87781], [77.4816863, 12.8780974], [77.4808768, 12.8742851], [77.4831207, 12.8743755], [77.4847352, 12.8716457], [77.4859905, 12.8713628], [77.4884215, 12.8719825], [77.4883638, 12.8724031], [77.491781, 12.8708198], [77.4925224, 12.8721949], [77.494554, 12.8717221], [77.4950922, 12.8729563], [77.4962732, 12.8729499], [77.497026, 12.8723759], [77.5045467, 12.8770092], [77.5054161, 12.8765897], [77.5066747, 12.8738077], [77.5092451, 12.8700204], [77.5115925, 12.8680622], [77.5154926, 12.8678767], [77.5202052, 12.8721493], [77.5230865, 12.8705789], [77.5202205, 12.8663431], [77.519542, 12.8621499], [77.5184087, 12.8611665], [77.51921, 12.8548557], [77.5215915, 12.8489977], [77.5235185, 12.8399451], [77.5260566, 12.8406419], [77.5334342, 12.8397015], [77.5351081, 12.8409542], [77.5375745, 12.8417374], [77.538348, 12.8453043], [77.5404916, 12.8449616], [77.5416765, 12.843325], [77.5427749, 12.8433708], [77.5443141, 12.8443686], [77.5446833, 12.8476161], [77.551494, 12.8480052], [77.553021, 12.8471569], [77.5532317, 12.8477325], [77.5544813, 12.8480283], [77.5573468, 12.8441897], [77.5574056, 12.841844], [77.5626756, 12.8402747], [77.5625571, 12.8389704], [77.5655943, 12.8396672], [77.5718742, 12.839196], [77.574328, 12.8373387], [77.5747871, 12.8374917], [77.5752311, 12.8387196], [77.5790409, 12.8382627], [77.5816575, 12.8372828], [77.5820121, 12.8364527], [77.5870163, 12.8334905], [77.5896662, 12.8354743], [77.590563, 12.8355888], [77.5906281, 12.8349655], [77.5915303, 12.8345839], [77.5939871, 12.84036], [77.5943101, 12.8454638], [77.595609, 12.8491909], [77.6001874, 12.8479122], [77.6026718, 12.8483981], [77.6044727, 12.8481733], [77.6070844, 12.8474716], [77.6092212, 12.8460657], [77.6090996, 12.8512683], [77.6127453, 12.8517501], [77.6143589, 12.8542153], [77.6164936, 12.8557137], [77.6168394, 12.8575339], [77.6211184, 12.8579401], [77.6292239, 12.8571232], [77.6313954, 12.8606111], [77.6343889, 12.8618437], [77.6340721, 12.8622608], [77.6352027, 12.8630485], [77.637288, 12.8628995], [77.6384861, 12.8634608], [77.6390688, 12.8649982], [77.641206, 12.865008], [77.6418751, 12.8635927], [77.6429035, 12.859449], [77.643091, 12.8505755], [77.6452168, 12.8520687], [77.64519, 12.851639], [77.6475763, 12.8522426], [77.6485194, 12.8518976], [77.6486271, 12.852673], [77.6495629, 12.8530704], [77.6496546, 12.8521065], [77.6500727, 12.8521501], [77.6498706, 12.8536294], [77.6517215, 12.8549233], [77.6528183, 12.8549785], [77.6531343, 12.8556543], [77.6558999, 12.8561123], [77.6561349, 12.8571], [77.6574542, 12.8578262], [77.6574002, 12.8585528], [77.6612809, 12.8586754], [77.6623661, 12.8595913], [77.6637177, 12.860783], [77.6641292, 12.8625282], [77.6645764, 12.862428], [77.666719, 12.8662118], [77.6728926, 12.8682523], [77.672812, 12.8693073], [77.6753249, 12.8725787], [77.674681, 12.8752587], [77.6713821, 12.8802721], [77.6739677, 12.8798489], [77.6741843, 12.8841265], [77.6722394, 12.8846669], [77.6737729, 12.89314], [77.6773538, 12.8942604], [77.679592, 12.8975981], [77.6822767, 12.8999588], [77.6825451, 12.9014142], [77.6874698, 12.9025606], [77.6875819, 12.9033383], [77.6857168, 12.9044378], [77.6873107, 12.904728], [77.6868479, 12.9064495], [77.6877515, 12.9064419], [77.6883632, 12.9054846], [77.6909251, 12.9055251], [77.6915677, 12.9039983], [77.6933935, 12.904489], [77.6962608, 12.9039942], [77.6978535, 12.9045446], [77.7023962, 12.9035763], [77.7028873, 12.9040881], [77.7068705, 12.9020259], [77.7083542, 12.9080629], [77.714228, 12.9080834], [77.7161215, 12.9073873], [77.7176396, 12.908966], [77.7178559, 12.9083743], [77.7197052, 12.9079857], [77.7197776, 12.9086546], [77.7207964, 12.9088233], [77.7207917, 12.9081543], [77.7213118, 12.9078472], [77.7262755, 12.906568], [77.7276123, 12.9108867], [77.7277829, 12.9144994], [77.7343653, 12.9140353], [77.7344467, 12.9131966], [77.737396, 12.9134915], [77.737423, 12.914686], [77.7380194, 12.9148178], [77.7446688, 12.9136334], [77.7457856, 12.9197736], [77.7513393, 12.922011], [77.7522725, 12.9252985], [77.7648351, 12.9287835], [77.7664129, 12.9349639], [77.7655034, 12.9370505], [77.7651352, 12.9423887], [77.7655884, 12.9465554], [77.7645504, 12.9522124], [77.7646684, 12.9594527], [77.764955, 12.9599299], [77.7672036, 12.9595269], [77.7683908, 12.9612294], [77.7699521, 12.9618981], [77.7706575, 12.9628785], [77.7707659, 12.9642211], [77.7720859, 12.9659318], [77.775068, 12.9666884], [77.7774288, 12.9680918], [77.7788445, 12.9676543], [77.7787911, 12.9668074], [77.7806451, 12.9670898], [77.7821235, 12.9661657], [77.7840639, 12.9667302], [77.783203, 12.9709009], [77.7811641, 12.970719], [77.7803462, 12.9699309], [77.7786284, 12.9705769], [77.7787959, 12.9728138], [77.777093, 12.973779], [77.7762017, 12.9751374], [77.7766577, 12.9761886], [77.7782784, 12.9764955], [77.7783759, 12.9779627], [77.7781489, 12.9784288], [77.7770295, 12.9784895], [77.775835, 12.979896], [77.7746683, 12.9804588], [77.7769134, 12.9851949], [77.7758658, 12.9864481], [77.7761524, 12.9882608], [77.7756056, 12.9915097], [77.7741182, 12.9918859], [77.774656, 12.9957581], [77.7744544, 12.9979146], [77.7749514, 12.9981782], [77.7747483, 13.0011158], [77.7738003, 13.001274], [77.7725595, 13.0025275], [77.7727388, 13.0029699], [77.7747807, 13.0029686], [77.7755696, 13.0035529], [77.7757553, 13.0058669], [77.7733544, 13.0063984], [77.7732141, 13.0095534], [77.7739011, 13.0107989], [77.7741444, 13.0131597], [77.7728472, 13.0148591], [77.7714616, 13.0150477], [77.7697716, 13.0093687], [77.7693602, 13.0045372], [77.7685827, 13.002653], [77.7641211, 13.0040738], [77.7640619, 13.0031278], [77.7633416, 13.0026042], [77.7621056, 13.0050316], [77.7602069, 13.0052549], [77.7593844, 13.0060978], [77.7595697, 13.0074666], [77.7560142, 13.010072], [77.7553103, 13.0102393], [77.7547417, 13.008839], [77.7524373, 13.0107117], [77.7498361, 13.011348], [77.7478807, 13.0127309], [77.7477957, 13.0114982], [77.7472174, 13.011663], [77.7468932, 13.0104761], [77.7470852, 13.0068195], [77.7411054, 13.0071435], [77.7408784, 13.0081253], [77.7361466, 13.0076148], [77.7362319, 13.0107625], [77.7355882, 13.0109132], [77.733958, 13.0101955], [77.7324408, 13.0108013], [77.7280825, 13.0105449], [77.7300945, 13.0198151], [77.7256631, 13.0259398], [77.7251532, 13.0259276], [77.724846, 13.0324113], [77.7241929, 13.0325698], [77.7239047, 13.033571], [77.7214455, 13.0341131], [77.7174164, 13.0328969], [77.7173371, 13.0315755], [77.7149629, 13.0319464], [77.7106557, 13.0259389], [77.7091528, 13.0252993], [77.7059213, 13.0261873], [77.7011858, 13.0249461], [77.7016839, 13.0274368], [77.6943795, 13.0267389], [77.6909147, 13.0324903], [77.6864656, 13.0335482], [77.6836302, 13.0332386], [77.6850515, 13.0451095], [77.6839669, 13.0501072], [77.6836139, 13.0499629], [77.67981, 13.0524853], [77.6783957, 13.0524392], [77.6789244, 13.0549976], [77.67949, 13.0556757], [77.6788848, 13.058029], [77.6794672, 13.0585266], [77.6796069, 13.0619696], [77.6791335, 13.0628712], [77.6766701, 13.0628823], [77.6771877, 13.0650309], [77.6753536, 13.0649458], [77.672406, 13.0656462], [77.6700267, 13.0657819], [77.6673226, 13.0638422], [77.6670164, 13.0659046], [77.6600883, 13.0678798], [77.6578229, 13.0729698], [77.6564912, 13.0746131], [77.6547211, 13.0819932], [77.649586, 13.0813629], [77.6466026, 13.0851515], [77.646524, 13.0862758], [77.6426974, 13.0868863], [77.6473498, 13.0964536], [77.6503199, 13.1046559], [77.637021, 13.1062687], [77.6386161, 13.1134229], [77.6306029, 13.1259441], [77.6258699, 13.1274617], [77.6184035, 13.1316008], [77.615531, 13.131168], [77.6124352, 13.1330058], [77.6042841, 13.1342598], [77.6018395, 13.1343074], [77.5996186, 13.1320319], [77.596567, 13.1329288], [77.5891037, 13.1333037], [77.5856907, 13.1332986], [77.585634, 13.1326003], [77.5848504, 13.1331029], [77.5837926, 13.1352194], [77.5824806, 13.1400299], [77.5799114, 13.1426196], [77.5743076, 13.1415192], [77.5738905, 13.1411412], [77.5734177, 13.1360438], [77.5719113, 13.1359732], [77.5713336, 13.1339359], [77.5696634, 13.1250224], [77.5655565, 13.1259629], [77.5631928, 13.1205025], [77.5625536, 13.1165481], [77.5615912, 13.1138239], [77.561062, 13.1137753], [77.5596753, 13.1121112], [77.5603134, 13.1111513], [77.5600468, 13.1093099], [77.5609952, 13.1087741], [77.5604712, 13.1072513], [77.5582127, 13.1029515], [77.5560238, 13.1001436], [77.5442294, 13.1013186], [77.544429, 13.1007881], [77.5421236, 13.0940183], [77.5407241, 13.0917759], [77.5407137, 13.0899733], [77.5354524, 13.0901736], [77.5343941, 13.0921371], [77.5237785, 13.0930664], [77.5232021, 13.0808731], [77.5212806, 13.080405], [77.5208825, 13.0791509], [77.51898, 13.0796652], [77.5179571, 13.0741809], [77.5144422, 13.075356], [77.5111324, 13.0757244], [77.5088169, 13.077852], [77.5071769, 13.0780067], [77.5027071, 13.0746546], [77.5014332, 13.0728447], [77.4995046, 13.0719799], [77.498344, 13.0732922], [77.4929727, 13.0735286], [77.4926283, 13.0667348], [77.4930338, 13.0621411], [77.4909557, 13.0569584], [77.4923336, 13.0547378], [77.4925833, 13.0515118], [77.4909729, 13.0451031], [77.4821387, 13.0484132], [77.4811562, 13.0482791], [77.4802406, 13.0489848], [77.4800592, 13.0486378], [77.4796245, 13.0447627], [77.4825567, 13.0407518], [77.4800968, 13.0379278], [77.4799131, 13.0356418], [77.4786767, 13.0350444], [77.4768731, 13.0315219], [77.4795354, 13.0291606], [77.478615, 13.0263471], [77.4783399, 13.0222847], [77.4788349, 13.0221259], [77.4782782, 13.018972], [77.4770054, 13.0148405], [77.4752588, 13.0131461], [77.473989, 13.0096517], [77.4730997, 13.0088345], [77.4728574, 13.0074114], [77.475398, 13.0064466], [77.4749988, 13.0048648], [77.4752662, 13.0025572], [77.4742023, 12.9992187], [77.4735671, 12.9988712], [77.4728825, 12.9967263], [77.4724496, 12.9968061], [77.4712531, 12.9946039], [77.4703635, 12.9906538], [77.4684461, 12.9866974], [77.4722587, 12.9848465], [77.4732776, 12.9836603], [77.4748368, 12.9756706], [77.4750063, 12.9701069], [77.4734954, 12.9673079], [77.4731872, 12.9633951], [77.4736663, 12.9620088], [77.4750405, 12.9604463], [77.4719953, 12.9550433], [77.4715488, 12.9522356], [77.4725124, 12.9516005], [77.4721424, 12.9508688], [77.4711219, 12.9507249], [77.4710589, 12.9495859], [77.4762791, 12.9488226], [77.474745, 12.9434218], [77.4732516, 12.9403335], [77.4747358, 12.9399146], [77.4764035, 12.9386287], [77.4762729, 12.9383094], [77.478357, 12.9375623], [77.4842436, 12.9369206], [77.4838948, 12.9338891], [77.4831344, 12.9323904], [77.483345, 12.9313815], [77.4828948, 12.9312614], [77.4832292, 12.9306897], [77.4823156, 12.9289551], [77.4809867, 12.9274064], [77.4802626, 12.9276406], [77.4791188, 12.927227], [77.4795953, 12.9259171], [77.4758874, 12.9266959], [77.4733884, 12.9266394], [77.4700802, 12.9151921], [77.4664994, 12.9101466], [77.4666715, 12.9068778], [77.4600793, 12.9066307]]]}}]}